{
"type": "FeatureCollection",
"name": "silvia_municipio",
"crs": { "type": "name", "properties": { "name": "urn:ogc:def:crs:OGC:1.3:CRS84" } },
"features": [
{ "type": "Feature", "properties": { "ID_ESPACIA": "19743", "AREA_OFICI": 582.0, "ENTIDAD_TE": "Cabecera Municipal", "NOM_DEPART": "CAUCA", "NOM_MUNICI": "SILVIA", "COD_DEPTO": "19" }, "geometry": { "type": "MultiPolygon", "coordinates": [ [ [ [ -76.212008761541952, 2.632264446831378 ], [ -76.211782676951387, 2.631963893585743 ], [ -76.212555471316833, 2.630999287599647 ], [ -76.213029760451249, 2.630095987128927 ], [ -76.2139230320129, 2.629371232897131 ], [ -76.214756309606415, 2.628586631819416 ], [ -76.215651304693225, 2.628282484760018 ], [ -76.216547527113548, 2.628278763184028 ], [ -76.217745196786325, 2.628934756687459 ], [ -76.218822144840146, 2.62929080876838 ], [ -76.220194374671863, 2.628804421399 ], [ -76.221624617406746, 2.62789717477969 ], [ -76.222577871115689, 2.627232254555066 ], [ -76.223292375629512, 2.626628408091926 ], [ -76.223467922448847, 2.625726381137065 ], [ -76.223583466674157, 2.624764506792106 ], [ -76.223995543730396, 2.623260624571672 ], [ -76.224171506035447, 2.622460728546315 ], [ -76.224885269461566, 2.621676648013392 ], [ -76.225599528004921, 2.621012724673119 ], [ -76.226550556186012, 2.619807057215949 ], [ -76.227023612431125, 2.618603358928745 ], [ -76.227258415298607, 2.61758091160679 ], [ -76.227552232435556, 2.616377963923275 ], [ -76.227907020410072, 2.615475189204257 ], [ -76.228320821194885, 2.61439192240218 ], [ -76.228675375602108, 2.613429069432195 ], [ -76.228910673814809, 2.612526791832167 ], [ -76.230036528932999, 2.610238859052285 ], [ -76.230508366100196, 2.608734740738162 ], [ -76.230921189472653, 2.60741114169709 ], [ -76.23103553745851, 2.606148858703394 ], [ -76.231090128659218, 2.604886820859152 ], [ -76.231144246368473, 2.60350461384894 ], [ -76.231018644990243, 2.602002968798208 ], [ -76.230536765201748, 2.601043571169969 ], [ -76.230353129334134, 2.599962770496507 ], [ -76.230289717282744, 2.59906173058627 ], [ -76.230286053953549, 2.598160447070935 ], [ -76.230461133867436, 2.597138258050461 ], [ -76.230875201503878, 2.596115086148969 ], [ -76.231229770086728, 2.595152247322679 ], [ -76.23134462110778, 2.59401013329659 ], [ -76.231337308676515, 2.592207577745895 ], [ -76.230972504908749, 2.590646823574532 ], [ -76.230070738879817, 2.589268528239232 ], [ -76.229351356000876, 2.588670609372559 ], [ -76.228571511398272, 2.587892684152652 ], [ -76.22725028801743, 2.586209652818518 ], [ -76.226767954304435, 2.58513006841188 ], [ -76.226045916653831, 2.583871195050388 ], [ -76.225264373663023, 2.58267263949177 ], [ -76.224782044819904, 2.581593051737388 ], [ -76.224598449169179, 2.580512234182204 ], [ -76.224173687896055, 2.57889161057039 ], [ -76.224108368467554, 2.577509871177408 ], [ -76.224104742901062, 2.576608583604977 ], [ -76.224217459375637, 2.57492568438237 ], [ -76.22451135296194, 2.573722752819435 ], [ -76.224686483276102, 2.572700561953793 ], [ -76.224802343973622, 2.571798792546582 ], [ -76.224795109440649, 2.569996197195183 ], [ -76.224250405703572, 2.568255896501066 ], [ -76.223469863645221, 2.567297666422239 ], [ -76.222929035679698, 2.566518718656388 ], [ -76.222506972869539, 2.565559040653966 ], [ -76.222503355439585, 2.564657742688983 ], [ -76.222678250807988, 2.563575472460936 ], [ -76.223390385172337, 2.562370843817601 ], [ -76.224343887588816, 2.561766113061203 ], [ -76.226848089022681, 2.560494150591889 ], [ -76.227801105980078, 2.559769251368357 ], [ -76.228455646473208, 2.559105647708733 ], [ -76.229106678395468, 2.558385554454851 ], [ -76.229109935425896, 2.558381956091397 ], [ -76.23006487920378, 2.558137750163585 ], [ -76.230899127925255, 2.557593590548057 ], [ -76.231673867827368, 2.557109761052112 ], [ -76.232508344942545, 2.556625691920904 ], [ -76.233222627940933, 2.555961858805221 ], [ -76.233815485339989, 2.554817817315857 ], [ -76.233806116726583, 2.552474494311455 ], [ -76.234518719073847, 2.551390071266032 ], [ -76.235471474787161, 2.550605096915735 ], [ -76.236425438685629, 2.550120567059726 ], [ -76.237320134632, 2.549756435145919 ], [ -76.238216280050324, 2.549752804680144 ], [ -76.239112173973155, 2.549689105457864 ], [ -76.24000710919681, 2.549385061498925 ], [ -76.241199311361981, 2.54871929783374 ], [ -76.242332007062913, 2.548113855798178 ], [ -76.24322742728117, 2.547929998022397 ], [ -76.244123307578306, 2.547866286187241 ], [ -76.245316226119357, 2.547380777456198 ], [ -76.246330625711266, 2.547076248461762 ], [ -76.247226753585863, 2.547072634137087 ], [ -76.248300896264197, 2.546767861892749 ], [ -76.249612319112231, 2.546041535683967 ], [ -76.250445814335876, 2.54531715302752 ], [ -76.250860638310073, 2.544474287862509 ], [ -76.251155020350879, 2.543391582617391 ], [ -76.251989713600395, 2.542967621486235 ], [ -76.254737783524448, 2.54295650892431 ], [ -76.255634375432706, 2.543073056277622 ], [ -76.257193869111163, 2.544628931150773 ], [ -76.257854628147484, 2.545527515787942 ], [ -76.258395176148298, 2.546246330662469 ], [ -76.258876229788982, 2.547025464213526 ], [ -76.259715966928155, 2.547863231372425 ], [ -76.260195094517698, 2.548161702138784 ], [ -76.261213567560333, 2.548878574577818 ], [ -76.262053066593438, 2.549656260189605 ], [ -76.262593628277926, 2.550375059312787 ], [ -76.263075641344813, 2.55139452936355 ], [ -76.263378450457509, 2.552414706316451 ], [ -76.26350156003231, 2.553315454038176 ], [ -76.263926265449498, 2.554935980388714 ], [ -76.264408052206804, 2.555895359522134 ], [ -76.265008355514752, 2.556613910709107 ], [ -76.266627878274221, 2.558229544432213 ], [ -76.267466662615789, 2.558826965245753 ], [ -76.268664607649086, 2.559603149694946 ], [ -76.270042272835866, 2.560498765133599 ], [ -76.271300932581141, 2.561515029156304 ], [ -76.273473994559382, 2.562917488312993 ], [ -76.276200575377857, 2.564398773714053 ], [ -76.278348725911044, 2.565550751595502 ], [ -76.281981135048596, 2.566779548973557 ], [ -76.28363093928958, 2.567021522364598 ], [ -76.285364195918945, 2.567511876092913 ], [ -76.287180896804301, 2.568250619280627 ], [ -76.288832370896529, 2.568907128625082 ], [ -76.290728467962325, 2.568899329556108 ], [ -76.29278808796694, 2.568559215820295 ], [ -76.294349703176891, 2.56739203094956 ], [ -76.295832577547813, 2.567137203672728 ], [ -76.297481664483414, 2.567213331023441 ], [ -76.298885142309956, 2.567705010077888 ], [ -76.301935665084756, 2.567775358642869 ], [ -76.303338789415122, 2.568184123012829 ], [ -76.304412507349198, 2.56867715380173 ], [ -76.305896703785677, 2.568753937594556 ], [ -76.308534346045548, 2.568660156663294 ], [ -76.310837818079278, 2.567489916114083 ], [ -76.312394982110732, 2.565244967415942 ], [ -76.314693376571185, 2.562831146993878 ], [ -76.316172137776363, 2.561581426714803 ], [ -76.321860133267464, 2.561557970628751 ], [ -76.324083145985568, 2.560885545030148 ], [ -76.326635214603954, 2.560045938741103 ], [ -76.328610910546203, 2.559374538150274 ], [ -76.331079841847355, 2.558369470703699 ], [ -76.332968351186921, 2.556537745640634 ], [ -76.334940636660193, 2.555037309870074 ], [ -76.336664609898463, 2.553289185717343 ], [ -76.338889589136727, 2.553114198682923 ], [ -76.340288896441422, 2.552610991735388 ], [ -76.341691915425471, 2.55301971788616 ], [ -76.342763522867955, 2.553015300106774 ], [ -76.344326667863385, 2.55226271049957 ], [ -76.344732048303456, 2.550602952060705 ], [ -76.344726976742493, 2.549359407911011 ], [ -76.345049945536871, 2.547699987296495 ], [ -76.346116122447697, 2.546369132763196 ], [ -76.347514401105343, 2.545617240078921 ], [ -76.349492041842183, 2.545443277801724 ], [ -76.351138596545169, 2.544939069822971 ], [ -76.352043287155141, 2.544437923277092 ], [ -76.352190387707225, 2.543764670567021 ], [ -76.352267496593583, 2.543681787880805 ], [ -76.352374167973309, 2.543629854611992 ], [ -76.352523204692559, 2.543571693971933 ], [ -76.352654141432296, 2.543530414416007 ], [ -76.352914466053392, 2.543458538583612 ], [ -76.353098666438228, 2.543404048081485 ], [ -76.353266361148371, 2.543344319436999 ], [ -76.353430091459259, 2.543271409642795 ], [ -76.353624474493827, 2.543169120818227 ], [ -76.353851168471081, 2.543038685332725 ], [ -76.354077275874275, 2.542903674009156 ], [ -76.354459904930167, 2.542670947352029 ], [ -76.35476404164055, 2.542483049578193 ], [ -76.354986154124958, 2.542340549084625 ], [ -76.355128092763863, 2.542245990692285 ], [ -76.355622621581176, 2.541911554194343 ], [ -76.35576532137874, 2.541818278348848 ], [ -76.355870988005819, 2.541752426522807 ], [ -76.356040489402005, 2.54165302259814 ], [ -76.356034062300438, 2.541476344952773 ], [ -76.355875911802428, 2.541015068045047 ], [ -76.35575730239502, 2.540369285693601 ], [ -76.355928630662845, 2.539644438562509 ], [ -76.356271290285775, 2.539341312039832 ], [ -76.356651040918209, 2.539334506051785 ], [ -76.356728391714142, 2.539372846048926 ], [ -76.356928656677624, 2.539443945320571 ], [ -76.357215655612677, 2.539532995739506 ], [ -76.35768503422544, 2.539657951067066 ], [ -76.358227671890774, 2.539780068388656 ], [ -76.359471053508301, 2.540035306684969 ], [ -76.359912705675811, 2.540134319018962 ], [ -76.360350880694426, 2.540240912211748 ], [ -76.361991085817607, 2.540671882801526 ], [ -76.362438512859896, 2.540768733415217 ], [ -76.362737987540314, 2.540820065826918 ], [ -76.363037224183003, 2.540860319052189 ], [ -76.363549650680909, 2.540906193425643 ], [ -76.364059982387019, 2.540929620794807 ], [ -76.364567621770135, 2.540937428771746 ], [ -76.365064393437223, 2.540933713738167 ], [ -76.365557280476423, 2.540916517801911 ], [ -76.366045394853984, 2.540881165094343 ], [ -76.366527628506049, 2.540821466099326 ], [ -76.366840933664207, 2.540765511400485 ], [ -76.367150691705191, 2.540695040158709 ], [ -76.367619997334216, 2.540558420545607 ], [ -76.368171099416216, 2.54036164028234 ], [ -76.369334075801945, 2.539884818974419 ], [ -76.3705440894677, 2.539357743011674 ], [ -76.371199940454531, 2.539057579986343 ], [ -76.37172698490069, 2.538799605061969 ], [ -76.372565757218766, 2.538368069341008 ], [ -76.373087319242103, 2.538085758057718 ], [ -76.373780147710676, 2.537694474800898 ], [ -76.375004749001036, 2.536967733049517 ], [ -76.384901841560648, 2.534788865762161 ], [ -76.392844794000609, 2.536148147830992 ], [ -76.399401540022097, 2.539363974718721 ], [ -76.407827109319697, 2.547886717814166 ], [ -76.40833357320102, 2.547991578601084 ], [ -76.408833915664374, 2.548021798070626 ], [ -76.412633136390909, 2.550498023130985 ], [ -76.420793117039707, 2.553079052532503 ], [ -76.423700358399728, 2.555475497986299 ], [ -76.423633542268945, 2.555875407696659 ], [ -76.423567172307713, 2.556718927043507 ], [ -76.42273224987288, 2.557565665900345 ], [ -76.422247253286301, 2.558551482517985 ], [ -76.420924419198869, 2.559681362919619 ], [ -76.419739858608722, 2.560459300257361 ], [ -76.418837689025366, 2.561938761681937 ], [ -76.418143366071789, 2.562995734798026 ], [ -76.417588509514161, 2.563981855496543 ], [ -76.417382990107029, 2.564966500392662 ], [ -76.417387669553491, 2.566090811742899 ], [ -76.41704767195877, 2.568340881511273 ], [ -76.41698102789519, 2.569114147653954 ], [ -76.416566492354448, 2.570240215882776 ], [ -76.416294044386817, 2.571927861051435 ], [ -76.416304018195717, 2.574317009007864 ], [ -76.416442286555224, 2.575327164171612 ], [ -76.416448634891694, 2.575328497582723 ], [ -76.416605180065204, 2.575385770412514 ], [ -76.416756820766892, 2.575477936544427 ], [ -76.416837849343793, 2.575556935552883 ], [ -76.416910562132557, 2.575655528861448 ], [ -76.416967127898232, 2.575758246342145 ], [ -76.417024638430831, 2.575892142900999 ], [ -76.417064972512648, 2.57600236660933 ], [ -76.417140187634317, 2.576231215221037 ], [ -76.417239353742858, 2.576548359651701 ], [ -76.417285554483001, 2.57670719370433 ], [ -76.417327924947514, 2.576866285803711 ], [ -76.417365565704884, 2.57702621013127 ], [ -76.417390243831321, 2.577153081906621 ], [ -76.417415502588653, 2.577318266190721 ], [ -76.417430715731157, 2.577469571307784 ], [ -76.417437720957665, 2.577617037794236 ], [ -76.417435484205058, 2.577752388609611 ], [ -76.417425824234897, 2.577866489024682 ], [ -76.417405830828613, 2.577982915962102 ], [ -76.417369690517887, 2.578120536247564 ], [ -76.417329822642387, 2.578232825755528 ], [ -76.417277380334824, 2.578355233333666 ], [ -76.419056227450113, 2.581489752836362 ], [ -76.419986864947489, 2.584771998565648 ], [ -76.422083034848143, 2.58782042797285 ], [ -76.42301477364073, 2.588992976592101 ], [ -76.427440190936451, 2.592111834788751 ], [ -76.429539905814309, 2.591340457674136 ], [ -76.431871468372393, 2.589935192435292 ], [ -76.434901555082902, 2.589936732705667 ], [ -76.437465362687746, 2.590172456906683 ], [ -76.440728189314711, 2.5908773430335 ], [ -76.442592047775534, 2.592519169550981 ], [ -76.444922189313218, 2.593926804097504 ], [ -76.448417885508491, 2.595100622355202 ], [ -76.452612857748548, 2.596274779654172 ], [ -76.45540863099751, 2.598854708085571 ], [ -76.458204869482941, 2.600496974689944 ], [ -76.462865695852614, 2.60237457722793 ], [ -76.467061167217494, 2.602611030967148 ], [ -76.470557149211885, 2.603315973611175 ], [ -76.474053349924134, 2.603552079461629 ], [ -76.478715451635594, 2.602851070645373 ], [ -76.485708979072939, 2.600979072676099 ], [ -76.489438272932034, 2.601215253512424 ], [ -76.493865880214969, 2.603561456795997 ], [ -76.497173904190234, 2.606057031066391 ], [ -76.497307024223332, 2.606157453591747 ], [ -76.497619803200834, 2.606803970238402 ], [ -76.497743141084754, 2.607032924383468 ], [ -76.498484361999687, 2.608176797585898 ], [ -76.498916598893345, 2.608942315545554 ], [ -76.498952619431492, 2.609019974058102 ], [ -76.498978100142935, 2.609133026675095 ], [ -76.498992590232405, 2.609347551600782 ], [ -76.498986243783278, 2.609566412229367 ], [ -76.498942483855643, 2.61003781868403 ], [ -76.498933222820853, 2.610244963508979 ], [ -76.498931780178822, 2.610898579532302 ], [ -76.498949585974728, 2.611349005214844 ], [ -76.498976801322172, 2.611680038830039 ], [ -76.499013384453676, 2.611957548454798 ], [ -76.499066618647149, 2.61223392245483 ], [ -76.49912258945271, 2.612418855674207 ], [ -76.501489612742972, 2.615685124624513 ], [ -76.501424392424909, 2.61588075701205 ], [ -76.501398222425365, 2.616116323706005 ], [ -76.501313862572246, 2.616300554070809 ], [ -76.501296717559143, 2.616325293190256 ], [ -76.501219200936944, 2.616456627918045 ], [ -76.501161430129258, 2.61657732699498 ], [ -76.501104609570703, 2.616730527369385 ], [ -76.501064005065373, 2.616874073904483 ], [ -76.501017495827952, 2.617075349743033 ], [ -76.500950744920331, 2.617399059427474 ], [ -76.500905661470355, 2.617600202992456 ], [ -76.500850155828218, 2.617809274029846 ], [ -76.50080005889933, 2.617977181728896 ], [ -76.500720996595163, 2.61822814419107 ], [ -76.500391613880936, 2.619243085505066 ], [ -76.500249190087231, 2.619691011779608 ], [ -76.500192274170772, 2.619877718395971 ], [ -76.50013669145406, 2.620066991088105 ], [ -76.500087585393359, 2.620241811900001 ], [ -76.500029518340895, 2.620457220121164 ], [ -76.500105556561934, 2.620683064229952 ], [ -76.500160401674009, 2.620851691987753 ], [ -76.500242804810384, 2.62111314713505 ], [ -76.500294822131877, 2.621284760735269 ], [ -76.500344165251732, 2.621456729953214 ], [ -76.500400367947364, 2.6216721864111 ], [ -76.500445155704128, 2.621872704182007 ], [ -76.500471577714947, 2.622017583441635 ], [ -76.500493398995488, 2.622162091153001 ], [ -76.500508049872266, 2.622288019269956 ], [ -76.50052083557091, 2.622455825534685 ], [ -76.500523633588671, 2.622618321949009 ], [ -76.500517725887036, 2.622778939760915 ], [ -76.500505372145597, 2.622934051161007 ], [ -76.500485372825082, 2.62310332529797 ], [ -76.500449041430898, 2.623356983999607 ], [ -76.500395392482417, 2.623695650256451 ], [ -76.500341404061345, 2.62399238253415 ], [ -76.500305229395423, 2.624151232016468 ], [ -76.500266691768289, 2.624284568404645 ], [ -76.500211857158533, 2.624432737837674 ], [ -76.500161288714651, 2.624541312057651 ], [ -76.500096228997933, 2.624649302713012 ], [ -76.499978744643201, 2.624803755082284 ], [ -76.499847073488112, 2.624949134361724 ], [ -76.499675489668462, 2.625120620323336 ], [ -76.499501343061453, 2.625288258889976 ], [ -76.498708170960796, 2.627526599235488 ], [ -76.498605585416442, 2.629421159104241 ], [ -76.499497675668536, 2.630754259819151 ], [ -76.499524742619954, 2.636993537130599 ], [ -76.498757927977323, 2.639002417995161 ], [ -76.49688130104019, 2.640570529615595 ], [ -76.496108187061793, 2.64113100864994 ], [ -76.494562938499286, 2.642474828552494 ], [ -76.493682913089984, 2.643927138826137 ], [ -76.493577945329605, 2.64526462909613 ], [ -76.493584332238427, 2.646733338278773 ], [ -76.493209922089633, 2.647428207960551 ], [ -76.492515208497281, 2.648377093723143 ], [ -76.492023817865416, 2.649292085890542 ], [ -76.491820489930831, 2.649885129205019 ], [ -76.491935616935308, 2.650335857321218 ], [ -76.495561966951215, 2.654973643327442 ], [ -76.497990597747162, 2.658466204433945 ], [ -76.502442859890976, 2.663786132410292 ], [ -76.502686315044087, 2.66396986701718 ], [ -76.502892569092367, 2.664137420157799 ], [ -76.503092270618495, 2.664307523610016 ], [ -76.503458521360713, 2.66464416558959 ], [ -76.503946928479834, 2.66514900768323 ], [ -76.504240624201628, 2.665489635906464 ], [ -76.504510023278755, 2.665831535682248 ], [ -76.504886923017565, 2.66636224595577 ], [ -76.505121697127919, 2.666754067157499 ], [ -76.505233164765386, 2.666967163848762 ], [ -76.505337715384684, 2.667184006328534 ], [ -76.505526555294296, 2.667624726039264 ], [ -76.505694752554419, 2.668072702137637 ], [ -76.505850782186073, 2.66852751535121 ], [ -76.50599189658179, 2.668974452049574 ], [ -76.506115236238003, 2.669414447782076 ], [ -76.506215568082155, 2.669864895548065 ], [ -76.506255860211311, 2.670119024399765 ], [ -76.506287833052482, 2.670439920941002 ], [ -76.507117903736713, 2.675161694470166 ], [ -76.507346529906982, 2.675783699053667 ], [ -76.507487615973702, 2.676224352095995 ], [ -76.507612475297449, 2.676668649192696 ], [ -76.50773230602303, 2.677174388458507 ], [ -76.507829257423722, 2.67767991302237 ], [ -76.507906297418828, 2.678194376665153 ], [ -76.507967476128087, 2.678705351423399 ], [ -76.508102349385325, 2.680026928768112 ], [ -76.50811943235297, 2.680158047921005 ], [ -76.509423888406729, 2.68395034067591 ], [ -76.509456977056161, 2.684000508051373 ], [ -76.512554079137928, 2.690686579397535 ], [ -76.512570608047838, 2.690719128842932 ], [ -76.512762422601256, 2.691053478646826 ], [ -76.512916583208423, 2.691290588627081 ], [ -76.513081553716574, 2.691518624744082 ], [ -76.513370388914993, 2.691867350285833 ], [ -76.513622395588214, 2.692132029071322 ], [ -76.513700396237851, 2.692206078032856 ], [ -76.515760104291928, 2.695412240480837 ], [ -76.515682165400463, 2.695700329651635 ], [ -76.515648320648353, 2.695851880708188 ], [ -76.515630199506461, 2.69600223549071 ], [ -76.515628942461603, 2.696152356232621 ], [ -76.515644732858647, 2.69630017355024 ], [ -76.51567769538913, 2.696441886871746 ], [ -76.515726774584195, 2.696579373030844 ], [ -76.515793437621269, 2.696712477561488 ], [ -76.515873850923128, 2.696840417122903 ], [ -76.515939656972108, 2.696933577259286 ], [ -76.516103562669088, 2.697152653195739 ], [ -76.51617976643449, 2.697271168615871 ], [ -76.516236414145681, 2.697390656743052 ], [ -76.516268058451942, 2.697526953178578 ], [ -76.516264653326303, 2.697666109777177 ], [ -76.516226339283861, 2.697793236117743 ], [ -76.516150017116985, 2.69790556628359 ], [ -76.516029408325551, 2.698001810693581 ], [ -76.515884546513647, 2.698081125177042 ], [ -76.515688458419419, 2.698172564910245 ], [ -76.515575161296525, 2.698232850046355 ], [ -76.515454180578999, 2.698317956803047 ], [ -76.515358849685143, 2.698415705795273 ], [ -76.515291868301787, 2.698528639391903 ], [ -76.515259230062284, 2.698654759771261 ], [ -76.515234002968427, 2.698724391323825 ], [ -76.515207345496563, 2.698817254410629 ], [ -76.51520778610012, 2.698817895389547 ], [ -76.514341133939212, 2.699170543499739 ], [ -76.513233731901309, 2.699671465738642 ], [ -76.512006551725392, 2.700958150127111 ], [ -76.511349001233071, 2.700961120460942 ], [ -76.510488025694443, 2.700849302431874 ], [ -76.510476109454558, 2.700833542221309 ], [ -76.510364329587517, 2.700719361861478 ], [ -76.510202584680002, 2.700628813794702 ], [ -76.510023751323914, 2.700581268329556 ], [ -76.509594807358582, 2.70051148664025 ], [ -76.509398019931751, 2.700472497274235 ], [ -76.509233492027434, 2.700427703137215 ], [ -76.509068551528927, 2.700372070867928 ], [ -76.508866016854753, 2.700293043717919 ], [ -76.508747484058205, 2.700240249804055 ], [ -76.508595123419653, 2.700161662899653 ], [ -76.508460751773669, 2.700072424054997 ], [ -76.508346749954853, 2.699969728546227 ], [ -76.508223564220657, 2.699829721218934 ], [ -76.508142155496046, 2.699713111907088 ], [ -76.508063770062307, 2.699571488992266 ], [ -76.508000924437212, 2.699415968100476 ], [ -76.507877715220062, 2.699028586093623 ], [ -76.507801746652504, 2.698897595939659 ], [ -76.507699831378133, 2.698795588347346 ], [ -76.507570545577551, 2.698699404469455 ], [ -76.507429831645425, 2.698611974119602 ], [ -76.507282893296903, 2.698530798000252 ], [ -76.507131957447342, 2.698456644194736 ], [ -76.506977172670872, 2.698393675892437 ], [ -76.50685662878567, 2.698357783568112 ], [ -76.506700670698322, 2.698332337532652 ], [ -76.506526149895421, 2.698321118151026 ], [ -76.506305459457991, 2.698319814975018 ], [ -76.506039491384911, 2.69832705224119 ], [ -76.505862415229942, 2.698335626035678 ], [ -76.505642390236659, 2.698353849336729 ], [ -76.505478875897722, 2.698377578723433 ], [ -76.505348759860482, 2.698406007095872 ], [ -76.505190894585667, 2.698449985135488 ], [ -76.505059002451986, 2.69849330848321 ], [ -76.504828969156804, 2.69857229251506 ], [ -76.504662692177234, 2.698611660142715 ], [ -76.504490617788235, 2.698631402728528 ], [ -76.504360188584897, 2.698632487910236 ], [ -76.504244057380575, 2.698618632133277 ], [ -76.504125087758325, 2.698586217470136 ], [ -76.503989214652805, 2.698519779299186 ], [ -76.503854896882856, 2.698422250533328 ], [ -76.503726480392899, 2.698296422398681 ], [ -76.503638883820997, 2.698188674456405 ], [ -76.503599655717466, 2.698082496041183 ], [ -76.503071791422371, 2.697237518767123 ], [ -76.50269751374843, 2.696247321064382 ], [ -76.502118472328405, 2.695423347668062 ], [ -76.501458357753052, 2.694847702392574 ], [ -76.500594215996344, 2.694603611208867 ], [ -76.499772264728392, 2.694607312765747 ], [ -76.49919818622277, 2.694899186030002 ], [ -76.499327533902189, 2.696262457681434 ], [ -76.500154809124354, 2.697067523684558 ], [ -76.500233294114963, 2.697204691784236 ], [ -76.500319458552013, 2.69736003785982 ], [ -76.500403306751693, 2.697520023919714 ], [ -76.500482990478432, 2.697682296657883 ], [ -76.500537473830931, 2.697803406904295 ], [ -76.500588183744881, 2.697927976938054 ], [ -76.5006312015676, 2.698054097083563 ], [ -76.500673264648768, 2.698216113188831 ], [ -76.500695393236754, 2.698360037147126 ], [ -76.500705133900212, 2.698502000158325 ], [ -76.500713494381031, 2.698808172331672 ], [ -76.50072809450802, 2.699015299515849 ], [ -76.500750067209069, 2.699221529487243 ], [ -76.500773253701539, 2.699385610765238 ], [ -76.500795224689824, 2.699510289196187 ], [ -76.500838292718427, 2.699716746331542 ], [ -76.500890230424261, 2.699917507110193 ], [ -76.500948406305355, 2.700102651467827 ], [ -76.501001202440293, 2.700248501940737 ], [ -76.501045133701567, 2.700356035852746 ], [ -76.501095735425622, 2.700467037532947 ], [ -76.501153602679366, 2.700577685768805 ], [ -76.501238504315282, 2.700719345303513 ], [ -76.501331677858772, 2.700851395969677 ], [ -76.501407614584963, 2.700946052436573 ], [ -76.501512977400736, 2.701059885246709 ], [ -76.501598760734879, 2.701143894578756 ], [ -76.501824913847841, 2.701356587923815 ], [ -76.501942535379669, 2.701483130565714 ], [ -76.502038506976731, 2.701616791109325 ], [ -76.502115187616013, 2.701794733341109 ], [ -76.502141999438194, 2.701950578400262 ], [ -76.502128600108122, 2.702147124920564 ], [ -76.502067831869695, 2.702420472133683 ], [ -76.502048050988236, 2.70253428533563 ], [ -76.502039167084121, 2.70266312888081 ], [ -76.502044611756929, 2.702777333233689 ], [ -76.502066052793566, 2.702901309357986 ], [ -76.502114395242231, 2.703059359455767 ], [ -76.502180086457344, 2.703205693762742 ], [ -76.502237377790891, 2.7033128004466 ], [ -76.502299682433858, 2.703416473725584 ], [ -76.502408620463257, 2.703581998126587 ], [ -76.502524224625873, 2.703743575746866 ], [ -76.502654657017658, 2.703913340666928 ], [ -76.502765099435791, 2.704048166522367 ], [ -76.502936107700791, 2.704244402533857 ], [ -76.50340162207074, 2.70475863854254 ], [ -76.503574361960489, 2.704952824900754 ], [ -76.503732433558312, 2.705137085297122 ], [ -76.503886647640897, 2.705324141773719 ], [ -76.504037005737203, 2.705513605736602 ], [ -76.504233887339268, 2.705769105075443 ], [ -76.504381630982351, 2.705968749275617 ], [ -76.504405578274373, 2.706002397644196 ], [ -76.501834010102854, 2.705384805264764 ], [ -76.499363733029085, 2.704404044218179 ], [ -76.498131174531409, 2.704492254259948 ], [ -76.496943210054951, 2.705365512699841 ], [ -76.496533160550172, 2.70590951582003 ], [ -76.496529895309934, 2.705968596925974 ], [ -76.496510927266115, 2.706156093960919 ], [ -76.496494006086451, 2.70626805486885 ], [ -76.496461449141123, 2.706436112402809 ], [ -76.496419260204192, 2.706608233662 ], [ -76.496366565472442, 2.706775858586377 ], [ -76.496298054042711, 2.706933883641955 ], [ -76.496207037129182, 2.707079489898593 ], [ -76.49612890699099, 2.707182201087639 ], [ -76.495963341826155, 2.707380358304203 ], [ -76.495850676213337, 2.707519355650333 ], [ -76.495412323182066, 2.708087609793671 ], [ -76.495269608561145, 2.708260023090627 ], [ -76.494971788937647, 2.70859193760551 ], [ -76.494884725154492, 2.708693714988384 ], [ -76.494803586649041, 2.708798972068218 ], [ -76.494705052494723, 2.708943418536634 ], [ -76.494634984019925, 2.709055828564547 ], [ -76.494545151531185, 2.709210745054403 ], [ -76.494458604806269, 2.709371434170036 ], [ -76.49438132601685, 2.70952656605815 ], [ -76.494185726225368, 2.709941806488152 ], [ -76.494106236528623, 2.710119340317796 ], [ -76.493992574166683, 2.710228566059499 ], [ -76.493581542027272, 2.710368744072919 ], [ -76.494286459515038, 2.712498734451628 ], [ -76.494284455246174, 2.716686086577697 ], [ -76.493186739028886, 2.720652501227414 ], [ -76.490773837530313, 2.725059049105985 ], [ -76.489018829001324, 2.728584368566829 ], [ -76.487921074629682, 2.732550773922738 ], [ -76.488357473871929, 2.736517936874826 ], [ -76.488353053352739, 2.745553768663971 ], [ -76.486159880216931, 2.74863808163387 ], [ -76.485801744642231, 2.750613250083369 ], [ -76.484160379936057, 2.747646820562757 ], [ -76.482507104620737, 2.74577465626427 ], [ -76.479199835921449, 2.743485804731127 ], [ -76.475685290912494, 2.742236464503788 ], [ -76.466173674795058, 2.742231627291325 ], [ -76.462866033988149, 2.740774435914497 ], [ -76.460178735088107, 2.739317574739713 ], [ -76.456871739440885, 2.736612815941572 ], [ -76.452972268346159, 2.734915619082138 ], [ -76.450462763909158, 2.734738144959998 ], [ -76.447883722436856, 2.734684032472703 ], [ -76.444053375252437, 2.733695134749275 ], [ -76.440538698474924, 2.732861571106825 ], [ -76.436816914871244, 2.732651656767643 ], [ -76.43414296721005, 2.732372087069012 ], [ -76.431235439823709, 2.730153540456921 ], [ -76.429788943319764, 2.7284893644225 ], [ -76.42792856450636, 2.727448733227637 ], [ -76.426274751446257, 2.726824064204324 ], [ -76.423889203424366, 2.725733391694156 ], [ -76.420692972410009, 2.724949691381696 ], [ -76.419245819324061, 2.72453305583038 ], [ -76.416765044864903, 2.723699992139594 ], [ -76.415318224460947, 2.72265957174592 ], [ -76.413581968236457, 2.721624116768762 ], [ -76.412107192379651, 2.721197805326901 ], [ -76.409567003306364, 2.722395573001247 ], [ -76.408728421225135, 2.722761398444081 ], [ -76.407649268803723, 2.723007607824455 ], [ -76.406451673885186, 2.723616444570477 ], [ -76.405493064407935, 2.723982803280776 ], [ -76.403814295888139, 2.72435238656271 ], [ -76.402736720550706, 2.724960679306082 ], [ -76.402019758275742, 2.725688073956478 ], [ -76.400584760513766, 2.726901464881529 ], [ -76.399987811371815, 2.727628316269895 ], [ -76.399511968831916, 2.728596036051059 ], [ -76.399156141990247, 2.729563221400288 ], [ -76.398920349630529, 2.730529873297659 ], [ -76.398937935444323, 2.734512890866553 ], [ -76.398222573264277, 2.735602387145297 ], [ -76.397505073900007, 2.736209092611261 ], [ -76.396666473819238, 2.736574940562317 ], [ -76.394988210019491, 2.737065243862215 ], [ -76.394029571742891, 2.737431635539788 ], [ -76.392951977937656, 2.738039954390821 ], [ -76.391754355784286, 2.738648804664723 ], [ -76.390796775031077, 2.739256598897502 ], [ -76.388957432143485, 2.740552844323512 ], [ -76.387144410290432, 2.741847935759151 ], [ -76.386003485716358, 2.74280135820285 ], [ -76.385672078373588, 2.744022092498303 ], [ -76.384203938481164, 2.747144554665383 ], [ -76.382403209467952, 2.751216830661103 ], [ -76.380997632176758, 2.753255238733637 ], [ -76.379654930534542, 2.754277311941582 ], [ -76.376762584890557, 2.755238608210671 ], [ -76.374139681082241, 2.756198696391839 ], [ -76.372192183593683, 2.757562181381056 ], [ -76.370377304740089, 2.758450912113643 ], [ -76.368431590588528, 2.760220839274877 ], [ -76.36783614835899, 2.762662104888043 ], [ -76.366638655233771, 2.766054399318162 ], [ -76.36535450170895, 2.76732958593704 ], [ -76.365137651443263, 2.767330658866249 ], [ -76.36491419126861, 2.767324277295842 ], [ -76.364727462598211, 2.767310278526188 ], [ -76.364497473852595, 2.767283085349598 ], [ -76.364319513395174, 2.76725580282102 ], [ -76.364104836883186, 2.767214229405584 ], [ -76.363939251882513, 2.767171869113642 ], [ -76.363784465718297, 2.767118818988608 ], [ -76.363598563043254, 2.767041312935877 ], [ -76.363378209991154, 2.766943930751769 ], [ -76.363189704592756, 2.766867182607191 ], [ -76.362996849097357, 2.766795931110998 ], [ -76.362763793565819, 2.766715263702883 ], [ -76.362529706789815, 2.766637880773819 ], [ -76.362366100630126, 2.766586132464528 ], [ -76.362023756443776, 2.766482533182907 ], [ -76.361166131226412, 2.766228544855898 ], [ -76.360934199491226, 2.766156304342148 ], [ -76.360780743276749, 2.766105198816934 ], [ -76.360591930143372, 2.766034138981945 ], [ -76.360438790694488, 2.76596522969064 ], [ -76.36032463464403, 2.765907705000147 ], [ -76.360174474601166, 2.765826284234442 ], [ -76.360026014676279, 2.765741267603327 ], [ -76.359916103739963, 2.765675054003281 ], [ -76.359740094872265, 2.765561648657963 ], [ -76.359571494889664, 2.765441043849608 ], [ -76.359444156699894, 2.765337090107474 ], [ -76.359335714870113, 2.765229455213873 ], [ -76.359259223261148, 2.765134153158546 ], [ -76.35917156528366, 2.765003526716763 ], [ -76.359087309467611, 2.764856476239295 ], [ -76.359014051883634, 2.764703702218599 ], [ -76.358966837832298, 2.764580063514707 ], [ -76.35893090416296, 2.764452087557299 ], [ -76.358893955677274, 2.764237263280475 ], [ -76.358875516974308, 2.764036161544059 ], [ -76.358861144241772, 2.76374823405876 ], [ -76.358846886395796, 2.763567388682019 ], [ -76.358820247935455, 2.763405000688327 ], [ -76.358780558458832, 2.763259971397555 ], [ -76.358729387315222, 2.763118054828663 ], [ -76.358666089159087, 2.762975007329771 ], [ -76.358586683544615, 2.76282210505378 ], [ -76.358435220436292, 2.762559771546178 ], [ -76.357851876500646, 2.761595058766796 ], [ -76.357761193661844, 2.76144737715474 ], [ -76.357645351812963, 2.761264407305832 ], [ -76.3575288885459, 2.761090311258144 ], [ -76.357385612013147, 2.760886240300526 ], [ -76.357239603836121, 2.760684059887091 ], [ -76.357141022397016, 2.76055026385579 ], [ -76.357041236528644, 2.7604176024779 ], [ -76.356816198139313, 2.760123295696932 ], [ -76.35672566828579, 2.759988118032864 ], [ -76.356648980386922, 2.759841934764593 ], [ -76.356586788869862, 2.75968712270544 ], [ -76.356547527466347, 2.759567773244649 ], [ -76.356500468336606, 2.759398841711017 ], [ -76.356459524937819, 2.75926058773838 ], [ -76.356414312393596, 2.759123245322385 ], [ -76.356361332462086, 2.758979404768621 ], [ -76.356299707692472, 2.75882976984867 ], [ -76.356232301307813, 2.75868291622053 ], [ -76.35617669624942, 2.758575749914772 ], [ -76.35609543369398, 2.758437834914825 ], [ -76.356004621942489, 2.758306672289362 ], [ -76.355901282499332, 2.75818382230541 ], [ -76.355849159106342, 2.758112176869046 ], [ -76.35575879342646, 2.758031613251658 ], [ -76.355666800380462, 2.757965675108783 ], [ -76.355610104580833, 2.757915092929313 ], [ -76.355265822025444, 2.757646507201566 ], [ -76.355132452260762, 2.757539601405871 ], [ -76.355012014631967, 2.757437418741706 ], [ -76.354894312798535, 2.757330040897096 ], [ -76.354770735361157, 2.757208696210851 ], [ -76.354591881246606, 2.757020839389976 ], [ -76.354364946705232, 2.756773221771932 ], [ -76.354090138583061, 2.756468120322388 ], [ -76.353929117014829, 2.756284444928994 ], [ -76.353826895403216, 2.75616247481311 ], [ -76.353706145469602, 2.756010233715464 ], [ -76.353590286497109, 2.75585438021334 ], [ -76.35349174714905, 2.755710124678067 ], [ -76.353350734792684, 2.755489066960525 ], [ -76.353238270492753, 2.755301804897436 ], [ -76.353152979559638, 2.755149494338108 ], [ -76.353046508944914, 2.754934170739684 ], [ -76.352966795063224, 2.754754281783574 ], [ -76.352878146534152, 2.75453709753683 ], [ -76.352795294210352, 2.754318707306798 ], [ -76.352665726592178, 2.753948815953585 ], [ -76.352509995973122, 2.753539203255992 ], [ -76.352389200836001, 2.7532009883108 ], [ -76.352303846090408, 2.752951773290215 ], [ -76.352224489750199, 2.752713344073279 ], [ -76.352147108657405, 2.752474411361515 ], [ -76.352097703708282, 2.752314715783229 ], [ -76.352052028999481, 2.752154381505705 ], [ -76.352022466775907, 2.7520333158909 ], [ -76.351992838593375, 2.751871395125705 ], [ -76.351976454559804, 2.751710744409035 ], [ -76.351964503761465, 2.751434903440575 ], [ -76.351956076680992, 2.751280027661704 ], [ -76.351936859048124, 2.7510875073398 ], [ -76.351911390923476, 2.750935614839524 ], [ -76.351868029851445, 2.750774201522648 ], [ -76.351808600954499, 2.750612799325034 ], [ -76.351737155489843, 2.750456297741963 ], [ -76.3516534412216, 2.750308770981703 ], [ -76.351559144758042, 2.750175255343522 ], [ -76.351454324190442, 2.750049988269654 ], [ -76.35133922225117, 2.749934808369394 ], [ -76.351207215488387, 2.749830166698046 ], [ -76.351063610031261, 2.749736075063081 ], [ -76.350952354972677, 2.749669679956406 ], [ -76.35080149162269, 2.749584183366462 ], [ -76.350116381911803, 2.749207557320376 ], [ -76.349887081671653, 2.749084334851976 ], [ -76.349732529132496, 2.749005919157377 ], [ -76.34960476941977, 2.748946340322246 ], [ -76.349431075410422, 2.748873934146759 ], [ -76.349283575999436, 2.748820925803877 ], [ -76.349120190452325, 2.748773999438119 ], [ -76.348948840487552, 2.748737376717341 ], [ -76.348818798841862, 2.748716801037522 ], [ -76.348691645163981, 2.748703967091284 ], [ -76.348571689754792, 2.748697211465136 ], [ -76.348393337494471, 2.74869490379866 ], [ -76.348125127462893, 2.748699309964351 ], [ -76.347856872563781, 2.748707389694967 ], [ -76.347589663611899, 2.748719342165469 ], [ -76.34745725454998, 2.748729138842619 ], [ -76.347289423191199, 2.74874917021989 ], [ -76.347144647934357, 2.74877977445875 ], [ -76.346996888792859, 2.748832232469928 ], [ -76.34688718327341, 2.748883354679176 ], [ -76.346748985787627, 2.748956920736422 ], [ -76.346484647445777, 2.749104521384042 ], [ -76.346279677767981, 2.749213500003366 ], [ -76.346072205600748, 2.74931788684456 ], [ -76.345868890244489, 2.749414277862318 ], [ -76.345667526565833, 2.749503230149859 ], [ -76.345510010176739, 2.749568211368929 ], [ -76.345034519068435, 2.749757994970722 ], [ -76.344531464010956, 2.749959933266126 ], [ -76.344447117726048, 2.749985404354288 ], [ -76.344346444859511, 2.750037160452563 ], [ -76.344233828635481, 2.750048605519376 ], [ -76.344117075217639, 2.750067515455774 ], [ -76.343965368304524, 2.750074539217193 ], [ -76.343821972574915, 2.750064817177925 ], [ -76.343657039612083, 2.75002901309631 ], [ -76.343488974974292, 2.749962394623492 ], [ -76.343376188011732, 2.749904151219013 ], [ -76.343228626189585, 2.749817743586898 ], [ -76.342942603533913, 2.749639501149733 ], [ -76.34280808347917, 2.749557414094824 ], [ -76.342636958169564, 2.749460994123806 ], [ -76.34252417488473, 2.74940467755263 ], [ -76.342365145856391, 2.749334549600277 ], [ -76.342203820866914, 2.749269273553194 ], [ -76.342041273665572, 2.749206707542323 ], [ -76.341796226026105, 2.749116470734636 ], [ -76.341632061950591, 2.749059599642828 ], [ -76.341425151664112, 2.748996477299262 ], [ -76.341272215133529, 2.748960279699757 ], [ -76.341115035898255, 2.748934776551953 ], [ -76.340722092829864, 2.748888045768821 ], [ -76.340596557814195, 2.748870803244806 ], [ -76.340443776815832, 2.748843304459432 ], [ -76.340281078147967, 2.74880109214704 ], [ -76.340116760568705, 2.748747021320339 ], [ -76.339913358898258, 2.748671286614206 ], [ -76.339751556405005, 2.748607165306337 ], [ -76.339590330104286, 2.748541164444967 ], [ -76.339353406110718, 2.748440233084659 ], [ -76.338885082851732, 2.748234706862346 ], [ -76.338589232661718, 2.74810653004192 ], [ -76.338224449526663, 2.747951387139083 ], [ -76.33800443210221, 2.747860229334316 ], [ -76.337869385523561, 2.747806322068899 ], [ -76.337748077726985, 2.74775978550242 ], [ -76.337627941616759, 2.747716077042919 ], [ -76.337458470945421, 2.747660208719065 ], [ -76.337299691390854, 2.747616884863532 ], [ -76.337172452535697, 2.747590361679519 ], [ -76.337050435337332, 2.747575790768054 ], [ -76.33690840782549, 2.747572035696686 ], [ -76.336729609269597, 2.747586908060727 ], [ -76.336564895902256, 2.747620269505888 ], [ -76.336457742698059, 2.747628522490657 ], [ -76.336373110911666, 2.747703690814884 ], [ -76.336323982676859, 2.747770071536644 ], [ -76.336326334984847, 2.747789045620953 ], [ -76.336176523287989, 2.748406588213902 ], [ -76.335917622720814, 2.749372523534458 ], [ -76.33558678515584, 2.750444425103336 ], [ -76.335852174149636, 2.752671347276637 ], [ -76.336078198171364, 2.753078644678592 ], [ -76.336172247650623, 2.753308910179102 ], [ -76.336203318670613, 2.75341574301094 ], [ -76.336243779290157, 2.753617166190318 ], [ -76.336253681713131, 2.753707992934141 ], [ -76.336250585919771, 2.753802376899982 ], [ -76.336319376133247, 2.754287349861173 ], [ -76.336340427702567, 2.754537806308419 ], [ -76.336346489377462, 2.754947078257728 ], [ -76.33632339806455, 2.755303526545527 ], [ -76.336264827528836, 2.755765901614954 ], [ -76.336191677477245, 2.756129511464838 ], [ -76.336118186465612, 2.756385516303797 ], [ -76.335960239385287, 2.756800199717995 ], [ -76.335905166220073, 2.757096282626634 ], [ -76.335896082630228, 2.757645042675155 ], [ -76.335830941276683, 2.758227621860284 ], [ -76.33568391711286, 2.758734212942595 ], [ -76.335625679789246, 2.758965711498914 ], [ -76.335520896708516, 2.759659101010252 ], [ -76.334142576076104, 2.761699652684904 ], [ -76.334067143123008, 2.761757483126992 ], [ -76.333846827475554, 2.761965446739004 ], [ -76.333649485459404, 2.7622095458924 ], [ -76.333297278695539, 2.762756824405176 ], [ -76.332966357639648, 2.763212113166159 ], [ -76.332798636823824, 2.763482138150064 ], [ -76.332712305706082, 2.76367812331682 ], [ -76.33265083541869, 2.763889245760658 ], [ -76.332515986557979, 2.764585846076631 ], [ -76.332468347299269, 2.764753125273556 ], [ -76.332435830962964, 2.764827322835539 ], [ -76.332374471975655, 2.764996866402699 ], [ -76.332336562882276, 2.765238393204223 ], [ -76.332329279670361, 2.765414558363482 ], [ -76.332331802293353, 2.7660045142474 ], [ -76.332327852329428, 2.766101358018864 ], [ -76.3317944529215, 2.768149725992095 ], [ -76.331790646134365, 2.768157982626689 ], [ -76.331535425385368, 2.768660507360662 ], [ -76.33140631522474, 2.7689076277178 ], [ -76.331022235194737, 2.769520574010998 ], [ -76.330688248027542, 2.772002305674997 ], [ -76.331076438468102, 2.774624712646446 ], [ -76.330880125989523, 2.777266053738384 ], [ -76.33082149313698, 2.777404962928887 ], [ -76.330672248757182, 2.777718330404649 ], [ -76.33033823710052, 2.778344791228361 ], [ -76.330102397551713, 2.778730553102097 ], [ -76.32981062271314, 2.779140738974902 ], [ -76.329410131367894, 2.779620391327205 ], [ -76.329009820546204, 2.780038283053935 ], [ -76.32882317965155, 2.778062303105244 ], [ -76.328103642334582, 2.776068715623338 ], [ -76.327024185478791, 2.773350103989904 ], [ -76.324502835464656, 2.771174173461793 ], [ -76.321981365372778, 2.769179410714485 ], [ -76.319820302230042, 2.767184882861827 ], [ -76.312254941193501, 2.762831355322807 ], [ -76.309011932542461, 2.762104459278362 ], [ -76.305588262539118, 2.762102248442532 ], [ -76.302884905304282, 2.762825247022568 ], [ -76.297118741439775, 2.762821449909999 ], [ -76.294596639997465, 2.761913826208213 ], [ -76.293614550437866, 2.761254515477449 ], [ -76.29352147535846, 2.76132702062228 ], [ -76.293431116167014, 2.761395194625211 ], [ -76.293311550801334, 2.761488906604318 ], [ -76.29310760334927, 2.761655226584317 ], [ -76.292908863139033, 2.761825813130142 ], [ -76.292782807619389, 2.761939999294622 ], [ -76.292649382602107, 2.762068142129336 ], [ -76.292521279090366, 2.762196392980994 ], [ -76.292396616395223, 2.762324166614984 ], [ -76.292213663549063, 2.762515006347159 ], [ -76.291977130430766, 2.762768593372839 ], [ -76.291580849376558, 2.763208037631213 ], [ -76.291466889378285, 2.763332299194062 ], [ -76.29135092029469, 2.763454365643222 ], [ -76.29126135817846, 2.763543143671455 ], [ -76.291165895684728, 2.763631700264929 ], [ -76.291031706970543, 2.763746445420275 ], [ -76.290894498519606, 2.763858014157098 ], [ -76.290478401577673, 2.764187679775227 ], [ -76.290341773115742, 2.764299438298367 ], [ -76.290228972907059, 2.764398526783753 ], [ -76.290105115620548, 2.764519213094674 ], [ -76.289957413522743, 2.764677188715393 ], [ -76.289844923302837, 2.764808272151646 ], [ -76.289765344400976, 2.764910007405152 ], [ -76.289668774108321, 2.765051428541163 ], [ -76.289584510527391, 2.765199409414652 ], [ -76.289447722919491, 2.765462514598393 ], [ -76.289370052702864, 2.765608515595529 ], [ -76.289250776190812, 2.765826244147541 ], [ -76.28912796340073, 2.766042011799187 ], [ -76.289019554260832, 2.766221462113528 ], [ -76.288899730092581, 2.766407516627652 ], [ -76.28875201416237, 2.76662833027845 ], [ -76.288353698754705, 2.76721448958256 ], [ -76.28815337521155, 2.767506697596676 ], [ -76.288051679464104, 2.76765156046141 ], [ -76.287947345495695, 2.767794280284628 ], [ -76.287858836034047, 2.767908227551746 ], [ -76.28774346424828, 2.768046351680183 ], [ -76.287610704508765, 2.768188983691044 ], [ -76.287439820351253, 2.768354319217031 ], [ -76.287322683193253, 2.768477172420067 ], [ -76.287217061494644, 2.768604167024165 ], [ -76.287092318324554, 2.768769817485333 ], [ -76.286996165148565, 2.768905647771512 ], [ -76.28690243136198, 2.769043490823779 ], [ -76.286818081415234, 2.76917239348709 ], [ -76.286694841884326, 2.76936796972986 ], [ -76.286569201368891, 2.769577691195387 ], [ -76.286489199570511, 2.769719613698827 ], [ -76.286408042535385, 2.769874404394536 ], [ -76.286330342111455, 2.770031003490857 ], [ -76.286255189571349, 2.770188804264586 ], [ -76.286166019708986, 2.77038784006317 ], [ -76.286101444357669, 2.770549353718351 ], [ -76.28605665692892, 2.770682979167045 ], [ -76.286020856531252, 2.770818224510969 ], [ -76.285987311044792, 2.770984638811087 ], [ -76.28596736229035, 2.771110670216073 ], [ -76.285947097681131, 2.771275422890215 ], [ -76.285923054927068, 2.771523655057178 ], [ -76.285903215176603, 2.771772338561059 ], [ -76.285892603932282, 2.771938217126534 ], [ -76.285885685422329, 2.772104190558577 ], [ -76.285884165947095, 2.772280379131609 ], [ -76.285886608404653, 2.772456671317043 ], [ -76.285893786956962, 2.772721112832093 ], [ -76.28590326955927, 2.772985499126168 ], [ -76.285911162106359, 2.773161660784133 ], [ -76.285921559741055, 2.773337636137023 ], [ -76.285933853932477, 2.773492964228339 ], [ -76.285948216180245, 2.773648157728351 ], [ -76.285980583186785, 2.773965021208683 ], [ -76.286079447683093, 2.774891812525771 ], [ -76.286107425482612, 2.775144933596613 ], [ -76.286136717257065, 2.775385799223268 ], [ -76.286165575597323, 2.77558650951719 ], [ -76.286194318698534, 2.7757468348563 ], [ -76.286233488329515, 2.775915791593299 ], [ -76.286310174298336, 2.776202121462201 ], [ -76.286364559248113, 2.776421140643482 ], [ -76.286394815433667, 2.776563657953756 ], [ -76.286418066087279, 2.776706149092191 ], [ -76.286438925211797, 2.776888247942331 ], [ -76.286455347335789, 2.777109846146863 ], [ -76.286465328579339, 2.777325135064692 ], [ -76.286180306352946, 2.778422089542179 ], [ -76.285662657510414, 2.77935709435483 ], [ -76.284680470957539, 2.780119276327166 ], [ -76.284045859247172, 2.780821621184641 ], [ -76.28341098894127, 2.78146567689045 ], [ -76.282892830882872, 2.782284092821154 ], [ -76.282260271367974, 2.78345279106445 ], [ -76.281683626729787, 2.784154887055268 ], [ -76.28052495543092, 2.784334917837725 ], [ -76.278843754252108, 2.784342401790887 ], [ -76.277567087655541, 2.784056604918666 ], [ -76.276577452268498, 2.783128287359699 ], [ -76.275644003815174, 2.781791656452188 ], [ -76.275118672208492, 2.78097786250773 ], [ -76.274706980578102, 2.779638916835854 ], [ -76.274468695856768, 2.778182601701659 ], [ -76.273943624303243, 2.777427085795733 ], [ -76.273012997529051, 2.776731681034682 ], [ -76.271443908891612, 2.775864199319591 ], [ -76.270114186515784, 2.77563692767883 ], [ -76.270114190133413, 2.775595217633085 ], [ -76.270019012482081, 2.775119331025927 ], [ -76.269495525876096, 2.774500661465213 ], [ -76.269091018535804, 2.77366784636824 ], [ -76.268900662997012, 2.772682751589846 ], [ -76.268662718815762, 2.771968917843065 ], [ -76.268234408408205, 2.771374055833469 ], [ -76.26787749225285, 2.770969542014048 ], [ -76.267687139495834, 2.770565029438121 ], [ -76.267568168712259, 2.770017757199351 ], [ -76.267472987236488, 2.76956566520385 ], [ -76.267187454022022, 2.769208740661075 ], [ -76.267163655897534, 2.768875617447601 ], [ -76.267306423041035, 2.768613885256075 ], [ -76.267472992884464, 2.7682807497605 ], [ -76.267472983898983, 2.767852449254501 ], [ -76.267449190701399, 2.767424140850995 ], [ -76.267258829308545, 2.766948248828918 ], [ -76.267068481830734, 2.766567540716745 ], [ -76.266687758423259, 2.766377186051999 ], [ -76.266235662838824, 2.766253452945042 ], [ -76.265723685942334, 2.766175807933293 ], [ -76.265668322741547, 2.766198451594755 ], [ -76.265513311151793, 2.766259650742675 ], [ -76.265317884642187, 2.766330798578846 ], [ -76.26516633045442, 2.766378582595226 ], [ -76.265017417006348, 2.76641798936283 ], [ -76.264801370749836, 2.766462229574541 ], [ -76.264684267575916, 2.766480351523204 ], [ -76.264481613562808, 2.766502054767063 ], [ -76.264320036668494, 2.766511095571218 ], [ -76.264160198360159, 2.766509082975385 ], [ -76.263986325005291, 2.766484595820981 ], [ -76.263810776509075, 2.766429218021334 ], [ -76.263618112967748, 2.766341637528344 ], [ -76.263482724414786, 2.76628906664345 ], [ -76.263370592310153, 2.766258522907802 ], [ -76.263242789731578, 2.766238335395471 ], [ -76.263103241776278, 2.766231728715125 ], [ -76.262946754746039, 2.766239375286559 ], [ -76.262785518431343, 2.766259215546306 ], [ -76.262655116495409, 2.766281356091405 ], [ -76.262481032334463, 2.766316443733998 ], [ -76.262218780108142, 2.766375180697 ], [ -76.262042643140788, 2.766417518965246 ], [ -76.261871041093954, 2.766461917042698 ], [ -76.261703545718106, 2.766508825689697 ], [ -76.26153364399255, 2.766560236117417 ], [ -76.261318439088811, 2.76663399036717 ], [ -76.261189547380283, 2.766685053036989 ], [ -76.261059295692817, 2.766745402082067 ], [ -76.260927013420158, 2.766813804521345 ], [ -76.2605880774491, 2.767233039714791 ], [ -76.260032693417799, 2.767898779064828 ], [ -76.259664158414409, 2.768315379879719 ], [ -76.259369467086671, 2.768620098721598 ], [ -76.259171345349699, 2.768801422240821 ], [ -76.257277152994234, 2.771021581632886 ], [ -76.256098677060322, 2.772047147234979 ], [ -76.253502456623607, 2.772709024069952 ], [ -76.250992568089089, 2.77246958307427 ], [ -76.248103541447335, 2.772876120945832 ], [ -76.245660128355595, 2.775057260480108 ], [ -76.245640061803599, 2.775093399174921 ], [ -76.245315812004506, 2.775623914685653 ], [ -76.245115740501191, 2.775969839731999 ], [ -76.245025355368242, 2.776147683262952 ], [ -76.244899774048136, 2.776444292451319 ], [ -76.244824770669197, 2.776666469641902 ], [ -76.244708255506524, 2.777123425114036 ], [ -76.244631277552301, 2.777592573767737 ], [ -76.244609593913481, 2.777830749848742 ], [ -76.244600592999291, 2.778176745049183 ], [ -76.244610304675078, 2.778554030148299 ], [ -76.244407900367946, 2.782253289500856 ], [ -76.244302388373143, 2.782253092226133 ], [ -76.24416804189886, 2.782270242553846 ], [ -76.243001618207799, 2.782470255846478 ], [ -76.242706114690563, 2.782487672260051 ], [ -76.24254339065304, 2.782476410970735 ], [ -76.242384918222498, 2.78244931416928 ], [ -76.242251733873999, 2.782414400873861 ], [ -76.241870910975251, 2.782290039262123 ], [ -76.24162764341277, 2.782227478144959 ], [ -76.24136562439277, 2.782199367978206 ], [ -76.241233483687239, 2.782199932082214 ], [ -76.240997976993626, 2.78222281865457 ], [ -76.239529830036687, 2.782539587839257 ], [ -76.239253022240533, 2.782612903147041 ], [ -76.239113452851186, 2.782661165037994 ], [ -76.238838058047946, 2.782776400271677 ], [ -76.238154030999823, 2.783099743286063 ], [ -76.234977092149222, 2.784597608380428 ], [ -76.232154950443132, 2.787074370386379 ], [ -76.230342200246312, 2.788373911290389 ], [ -76.226820597044139, 2.789256469065405 ], [ -76.223822586108838, 2.789125252068246 ], [ -76.223696355691857, 2.789166823536445 ], [ -76.219797405778152, 2.788998927575492 ], [ -76.216683811466353, 2.789356388477996 ], [ -76.213853841808344, 2.789348159009259 ], [ -76.210952554377627, 2.788157674730431 ], [ -76.210009983119463, 2.787738963170543 ], [ -76.20956395489371, 2.787559183882476 ], [ -76.209336248633974, 2.78747745785339 ], [ -76.209048057845834, 2.787386125031794 ], [ -76.208759487382736, 2.78730627598316 ], [ -76.208179829951078, 2.787172487879626 ], [ -76.207318727015746, 2.787013606200529 ], [ -76.20680442695361, 2.786934808922503 ], [ -76.20654906646908, 2.786905725846537 ], [ -76.206315906426354, 2.786888193144388 ], [ -76.20585093589024, 2.786876933676351 ], [ -76.205388275425378, 2.786895239064116 ], [ -76.205118008378662, 2.786920239546314 ], [ -76.204579655881304, 2.786992999234641 ], [ -76.204042911133897, 2.787083552662143 ], [ -76.203293163217708, 2.787226572491662 ], [ -76.202811745838375, 2.787328316295542 ], [ -76.20233112000291, 2.787443045562227 ], [ -76.201825070318677, 2.787585521951696 ], [ -76.201319369427324, 2.787750080297256 ], [ -76.201066510230746, 2.787841651768699 ], [ -76.2005791594882, 2.788041755430346 ], [ -76.200344567556456, 2.788150117768066 ], [ -76.199875190951317, 2.788388429230747 ], [ -76.199360335351685, 2.788680831524254 ], [ -76.198234327493225, 2.789369921050399 ], [ -76.197954713635355, 2.789531599467589 ], [ -76.197906310276295, 2.789552192096614 ], [ -76.197905160696934, 2.789501297401913 ], [ -76.197870279087184, 2.789392120907742 ], [ -76.197805717717202, 2.789252554269164 ], [ -76.197731851788134, 2.789128995677372 ], [ -76.197642391061621, 2.789003576308314 ], [ -76.197429744620507, 2.788759334340301 ], [ -76.197172734754886, 2.788523261895676 ], [ -76.196883337258271, 2.788299883364504 ], [ -76.196436867593178, 2.787992249700827 ], [ -76.196134574750474, 2.787807738534042 ], [ -76.195496077740785, 2.78747165603691 ], [ -76.195223423516367, 2.787311860807271 ], [ -76.194827002526722, 2.787053566670319 ], [ -76.194315884938078, 2.786685948075772 ], [ -76.193941179809315, 2.786381554807035 ], [ -76.193701416349384, 2.786160735127851 ], [ -76.192748177222654, 2.785167724609543 ], [ -76.192336395657605, 2.784782330220227 ], [ -76.191892702346166, 2.784400987376491 ], [ -76.191583965281296, 2.784151515073532 ], [ -76.191273717189432, 2.783916520054209 ], [ -76.19087198560392, 2.783635880212748 ], [ -76.190253502564758, 2.783415461375232 ], [ -76.190012897501589, 2.783315695886143 ], [ -76.189864691161986, 2.783243165658555 ], [ -76.189653549892952, 2.783125682989741 ], [ -76.189454778459492, 2.782998211183161 ], [ -76.189166194895634, 2.782770722863722 ], [ -76.189051071808578, 2.782689642140245 ], [ -76.18899029499633, 2.782656277845134 ], [ -76.188840925802197, 2.78260321110442 ], [ -76.188599033496146, 2.782559655281169 ], [ -76.188172968964025, 2.78252657800303 ], [ -76.187004244512309, 2.782528990021246 ], [ -76.186124489066984, 2.782233961531872 ], [ -76.185386009887637, 2.782021863539803 ], [ -76.185057222379214, 2.78194086403286 ], [ -76.18466396842058, 2.781863924782197 ], [ -76.184391217570905, 2.78182319375725 ], [ -76.184099615256926, 2.781801454989465 ], [ -76.183624160072014, 2.781784381731404 ], [ -76.182220968482298, 2.781744011444395 ], [ -76.182045770967889, 2.781732993792853 ], [ -76.181874257862532, 2.781711401133386 ], [ -76.181607364933782, 2.78164752318548 ], [ -76.181081682144466, 2.7814851450132 ], [ -76.180813554822777, 2.781416742528956 ], [ -76.180354216133821, 2.781325004330987 ], [ -76.178924626870369, 2.781068119695839 ], [ -76.178420308401925, 2.780846051942157 ], [ -76.17806500356744, 2.780700238627219 ], [ -76.176896752598623, 2.780284780266126 ], [ -76.176565702495836, 2.780156146265951 ], [ -76.176343720959579, 2.780055472229153 ], [ -76.176018526348429, 2.779890301942338 ], [ -76.175733791283832, 2.779727388981212 ], [ -76.175561796459931, 2.779614309052713 ], [ -76.175400707412891, 2.779487448441834 ], [ -76.175250223788481, 2.779335024642327 ], [ -76.175113713820579, 2.779165392905535 ], [ -76.174989238815385, 2.778981667302072 ], [ -76.174873130445746, 2.77877231310596 ], [ -76.174649679154825, 2.778295746031262 ], [ -76.174534414966104, 2.778071815813826 ], [ -76.174361780440165, 2.777765534312093 ], [ -76.174262931268913, 2.777607225949069 ], [ -76.174347449853883, 2.777615004951303 ], [ -76.174552146823928, 2.777599504308297 ], [ -76.174820626334565, 2.777561928184158 ], [ -76.175131688538272, 2.777501643449266 ], [ -76.175387070090792, 2.777439750620764 ], [ -76.175649224243131, 2.777364276543834 ], [ -76.175928093922579, 2.777269310794247 ], [ -76.176203839794937, 2.777157860581922 ], [ -76.176566546306319, 2.776978606143664 ], [ -76.176910351522068, 2.776768168372823 ], [ -76.177206937877258, 2.776548582604358 ], [ -76.177485990730901, 2.77630948540362 ], [ -76.177782023719857, 2.776025563651898 ], [ -76.178398815341282, 2.775396691478341 ], [ -76.178890986350638, 2.774926253331002 ], [ -76.179376069188223, 2.774506546028316 ], [ -76.179643567169947, 2.77429786186063 ], [ -76.179919075705072, 2.77410371690255 ], [ -76.180196866886234, 2.773930605156248 ], [ -76.180482368452516, 2.773771431606107 ], [ -76.180773879085606, 2.77362366823761 ], [ -76.181070099055475, 2.773485491959238 ], [ -76.181433720355457, 2.773329290487979 ], [ -76.181801784833226, 2.773184422139888 ], [ -76.182173672709609, 2.773051048805013 ], [ -76.182549254937555, 2.772930355249048 ], [ -76.182905957331386, 2.772828947728746 ], [ -76.184043702528513, 2.772533693779941 ], [ -76.184428687650041, 2.772424205008498 ], [ -76.18560075208174, 2.772036017749105 ], [ -76.185837912745868, 2.771967672815708 ], [ -76.186200424558976, 2.771884460894047 ], [ -76.186605787671297, 2.771824085659901 ], [ -76.189932326530965, 2.77151790066933 ], [ -76.190658126282003, 2.771435852264676 ], [ -76.191044943983982, 2.771382243813055 ], [ -76.191474227229463, 2.771313704886536 ], [ -76.192291685494354, 2.771158112246677 ], [ -76.192945487505114, 2.771003524502743 ], [ -76.193147320941975, 2.770940803783523 ], [ -76.193206870172745, 2.770906600898424 ], [ -76.194003053952756, 2.771423674152874 ], [ -76.194627601690414, 2.771798392272823 ], [ -76.195035224895179, 2.77201098124549 ], [ -76.195551187084931, 2.772229720004191 ], [ -76.195966488319684, 2.772370642925389 ], [ -76.196376009882002, 2.772466911875064 ], [ -76.196715385876857, 2.772514537361636 ], [ -76.197442704084239, 2.772586658794977 ], [ -76.19769326663301, 2.772624206419674 ], [ -76.197946651693343, 2.772678250240724 ], [ -76.19816828968905, 2.772744747134897 ], [ -76.198385000010589, 2.772824500188463 ], [ -76.198791240652355, 2.773006769437103 ], [ -76.199138326555072, 2.773320425804887 ], [ -76.20249481660295, 2.774944517640035 ], [ -76.202581573680433, 2.774948565775651 ], [ -76.202984537328021, 2.774938965378518 ], [ -76.203210628951652, 2.774917489815304 ], [ -76.203659006895407, 2.774845750049242 ], [ -76.204824040460579, 2.774571335376806 ], [ -76.205360686855869, 2.774478909886764 ], [ -76.205631304728072, 2.774446383823912 ], [ -76.206127568390386, 2.77441102956613 ], [ -76.206578359344789, 2.774405245655525 ], [ -76.206990528748278, 2.774419685784402 ], [ -76.207471831144616, 2.774457585882897 ], [ -76.208024699136814, 2.77452255632103 ], [ -76.208584653375993, 2.774604867382357 ], [ -76.209085969245393, 2.774693166498059 ], [ -76.209339161971812, 2.774745631956404 ], [ -76.209856565836418, 2.77487242169201 ], [ -76.211413577449392, 2.775296269907168 ], [ -76.211816934625233, 2.775384784510939 ], [ -76.211974976210612, 2.775404350055226 ], [ -76.21252072860176, 2.775454174880243 ], [ -76.212724562255218, 2.77546729500223 ], [ -76.216197587225352, 2.774407762877828 ], [ -76.216555059110661, 2.774051594069437 ], [ -76.21691872480541, 2.77361053352784 ], [ -76.21712775578348, 2.773327829637011 ], [ -76.217565947882832, 2.772823162535882 ], [ -76.217717886303845, 2.772624791766282 ], [ -76.217841411611431, 2.77238999897425 ], [ -76.218048562527741, 2.771878193814998 ], [ -76.218104136281042, 2.771770800184278 ], [ -76.218172102461367, 2.771666928336197 ], [ -76.218290858550787, 2.771516151413639 ], [ -76.218424800171292, 2.771367625711228 ], [ -76.218564514412407, 2.771231936459154 ], [ -76.21872275902345, 2.771093775092373 ], [ -76.220183400690914, 2.768321077899389 ], [ -76.221459035149707, 2.762133833307414 ], [ -76.221470803630865, 2.762083960490048 ], [ -76.223498822355779, 2.758471178621148 ], [ -76.225532791978225, 2.755981551986108 ], [ -76.225605987029567, 2.755811068006845 ], [ -76.225677446698526, 2.755590835331042 ], [ -76.225711299677613, 2.755450541037666 ], [ -76.225754660869796, 2.755179031987601 ], [ -76.225773781672942, 2.754926686832581 ], [ -76.225775881481752, 2.754678616658018 ], [ -76.225760486565378, 2.754436861666189 ], [ -76.225742365380739, 2.754300366682501 ], [ -76.225702687952264, 2.754110083676439 ], [ -76.225376079209767, 2.752011440629238 ], [ -76.225382221109925, 2.751556058220069 ], [ -76.226181325016043, 2.749647869824378 ], [ -76.226450500966294, 2.747821668423567 ], [ -76.226437089283095, 2.747761984697588 ], [ -76.226366501194349, 2.747532122623091 ], [ -76.22617640845003, 2.74698331178414 ], [ -76.226088972311587, 2.746652923737307 ], [ -76.226037437786104, 2.746282835841844 ], [ -76.226012983824234, 2.745903183542808 ], [ -76.22600529236108, 2.745631424630374 ], [ -76.226022215797016, 2.745372409116369 ], [ -76.226041354825, 2.74523570558669 ], [ -76.2260771826721, 2.745065951299555 ], [ -76.226125862353229, 2.744899515652 ], [ -76.226178867596374, 2.744757693635825 ], [ -76.226241326541512, 2.744621764386374 ], [ -76.226321866220715, 2.74447854733996 ], [ -76.226412104278381, 2.744343611309944 ], [ -76.226510160448456, 2.744216620764273 ], [ -76.226614917658253, 2.744097527979352 ], [ -76.227022085201554, 2.743690088252026 ], [ -76.227117933723221, 2.743578528153911 ], [ -76.227199983116364, 2.743469763408872 ], [ -76.227347711400583, 2.743240028570063 ], [ -76.227554344679135, 2.742846471399279 ], [ -76.22799999867209, 2.741858332069137 ], [ -76.228202269493636, 2.741436980545947 ], [ -76.228432771743456, 2.741018127583478 ], [ -76.22921890805172, 2.739684195732394 ], [ -76.229478136472267, 2.739204980692012 ], [ -76.229698392563662, 2.73876119560317 ], [ -76.229743427830329, 2.738448543603748 ], [ -76.229754956178326, 2.738157801925774 ], [ -76.229731971237754, 2.737867795780296 ], [ -76.229633964167306, 2.737228650706777 ], [ -76.229603050433965, 2.736963919892068 ], [ -76.229602671757362, 2.736919318678319 ], [ -76.23023065806639, 2.734645082358971 ], [ -76.23027953902745, 2.732083298823719 ], [ -76.230244624606044, 2.731774896424896 ], [ -76.230207206097433, 2.731617649602286 ], [ -76.229585483439706, 2.729453159599962 ], [ -76.229595031908545, 2.726976083815792 ], [ -76.229070951452371, 2.723935106277615 ], [ -76.22904967570129, 2.723779306116736 ], [ -76.229029450439199, 2.723518660975616 ], [ -76.229012008781183, 2.722858011694909 ], [ -76.228988688765853, 2.722371457866626 ], [ -76.228962937237497, 2.721966003422494 ], [ -76.228929248374882, 2.721637576075248 ], [ -76.228856790082318, 2.721211700832697 ], [ -76.228736447485048, 2.720657955286216 ], [ -76.228675926127153, 2.72033247592272 ], [ -76.228651480942091, 2.719751178083786 ], [ -76.228643020082814, 2.719105848643368 ], [ -76.228657827797136, 2.718630446764862 ], [ -76.228697128859991, 2.71814373080946 ], [ -76.228753528891787, 2.717714473526249 ], [ -76.228991222029819, 2.71618204709281 ], [ -76.229294724476588, 2.714487844176748 ], [ -76.229365426018589, 2.714137368538423 ], [ -76.22945889219433, 2.713796598963483 ], [ -76.229516987278942, 2.713631292809488 ], [ -76.22958364985233, 2.713467918145733 ], [ -76.22970761698808, 2.713211923074273 ], [ -76.229931855882953, 2.712812395146068 ], [ -76.230191540693653, 2.712380537553434 ], [ -76.230918871981473, 2.711220227247078 ], [ -76.231137170747687, 2.710740327936169 ], [ -76.231497265918193, 2.709894430173335 ], [ -76.231565229560076, 2.709693456844958 ], [ -76.231674279835062, 2.709293403296235 ], [ -76.231698104176317, 2.709209023427085 ], [ -76.231783177790064, 2.70902188894872 ], [ -76.231982229431523, 2.708663637887419 ], [ -76.232201198394591, 2.708320917618145 ], [ -76.232674737816794, 2.707639930700931 ], [ -76.232799745788455, 2.707430975824374 ], [ -76.232851304099, 2.707327826819425 ], [ -76.232903017084865, 2.707206111766474 ], [ -76.232983938539959, 2.706956186290228 ], [ -76.233118824736408, 2.706350597998028 ], [ -76.233201125192892, 2.706095981829462 ], [ -76.233257519918212, 2.705963208068688 ], [ -76.233368736567016, 2.705743689139239 ], [ -76.233644543740922, 2.705281192018115 ], [ -76.233892665059557, 2.704943508722331 ], [ -76.234247858634802, 2.704531694994879 ], [ -76.235088867300362, 2.703621499577934 ], [ -76.235801898586644, 2.702883841874343 ], [ -76.236497344328683, 2.702157827256289 ], [ -76.236870914712725, 2.70173174868983 ], [ -76.237846958907426, 2.700534177280808 ], [ -76.238479830060996, 2.699653401482409 ], [ -76.238676346556545, 2.699404484911999 ], [ -76.238779513771021, 2.699244950079825 ], [ -76.238899807967741, 2.699006838415993 ], [ -76.239021344786536, 2.698714887486536 ], [ -76.239071895587358, 2.698545069605998 ], [ -76.239155962594481, 2.697963280800169 ], [ -76.239265725459816, 2.697498361477207 ], [ -76.239696190583814, 2.696895057473363 ], [ -76.240028024527533, 2.696375414151505 ], [ -76.240186561654752, 2.696096646741581 ], [ -76.240333333877487, 2.695812822291835 ], [ -76.240595120329374, 2.695234951427969 ], [ -76.240796815782957, 2.694713744526143 ], [ -76.240951548764343, 2.694253252128015 ], [ -76.241046662229252, 2.693935927253459 ], [ -76.241214388847695, 2.693304740561954 ], [ -76.241447846962231, 2.692312322113439 ], [ -76.241571527007437, 2.691865504934368 ], [ -76.241656267764199, 2.691609040988674 ], [ -76.24175077672534, 2.691357144949721 ], [ -76.241855216926211, 2.691110301202323 ], [ -76.241970792621785, 2.690867812398478 ], [ -76.242096578577588, 2.690631408359018 ], [ -76.242232586214286, 2.690401699822097 ], [ -76.24239800386043, 2.69015290006558 ], [ -76.242576732823323, 2.689914715119172 ], [ -76.242769497429563, 2.689688910027616 ], [ -76.242962253814824, 2.689492382035632 ], [ -76.243168487400723, 2.689309882076202 ], [ -76.243411127624526, 2.689125649151142 ], [ -76.243666018201324, 2.688955094783704 ], [ -76.2444150255929, 2.688504442870735 ], [ -76.244612763619884, 2.688377168061153 ], [ -76.245032674458045, 2.688073537265908 ], [ -76.245253045294902, 2.687894222103206 ], [ -76.245468319642853, 2.687704740235788 ], [ -76.245677955279817, 2.687504839311348 ], [ -76.246435848635116, 2.686706265844141 ], [ -76.246793231035554, 2.686357290628434 ], [ -76.248100204859753, 2.685174202018334 ], [ -76.248066963812221, 2.684933515912532 ], [ -76.248055605870874, 2.684701473179861 ], [ -76.248071749034978, 2.684439029781216 ], [ -76.248093630885876, 2.684300375700997 ], [ -76.248125083447405, 2.684155462799012 ], [ -76.248204861541964, 2.683886291627059 ], [ -76.24839923032971, 2.683400560293695 ], [ -76.248667406095038, 2.682819670439293 ], [ -76.248888497585469, 2.682370303311767 ], [ -76.249650735466957, 2.680959970601186 ], [ -76.250147549710803, 2.680083449646145 ], [ -76.250339519445205, 2.679765764330776 ], [ -76.25070902149524, 2.679188267819052 ], [ -76.250808842383378, 2.679005605878075 ], [ -76.25080595733624, 2.678558104591044 ], [ -76.250842978973552, 2.677762516310662 ], [ -76.250921268744392, 2.677124758949474 ], [ -76.251007350018014, 2.676587854860361 ], [ -76.251021933701139, 2.676396352569953 ], [ -76.251034357357511, 2.675993435761229 ], [ -76.251026493712999, 2.675523119891678 ], [ -76.250992070108367, 2.675041349930562 ], [ -76.250961951462898, 2.674804141469471 ], [ -76.250920258912274, 2.674563640726424 ], [ -76.250816576575318, 2.674095091705453 ], [ -76.250551057858672, 2.673004416823048 ], [ -76.250443068598088, 2.672577747790792 ], [ -76.25032528018022, 2.672158100137174 ], [ -76.250200949503338, 2.671785014466546 ], [ -76.249825283730829, 2.670816087408653 ], [ -76.249717991965028, 2.670472878519745 ], [ -76.24967235668376, 2.670288278949035 ], [ -76.249601087583756, 2.669913592542759 ], [ -76.249575444116502, 2.669723908273589 ], [ -76.249547988586457, 2.669382705463819 ], [ -76.249546264793409, 2.669037824791979 ], [ -76.249585941899625, 2.668591902748576 ], [ -76.249661165571354, 2.668132971440953 ], [ -76.249762970685254, 2.667659058387696 ], [ -76.249888213267326, 2.667176541637749 ], [ -76.250014197937006, 2.666763567624701 ], [ -76.250220227865512, 2.666170557543683 ], [ -76.250411914429549, 2.665673401465225 ], [ -76.250413874050992, 2.665641049936367 ], [ -76.25042128598011, 2.665582544242548 ], [ -76.250433876013773, 2.665516641304051 ], [ -76.250449595769282, 2.66547755167764 ], [ -76.251172901194451, 2.664605944450046 ], [ -76.252539778178743, 2.662857713654276 ], [ -76.253253974336943, 2.662193757066369 ], [ -76.253967659762452, 2.661409646180228 ], [ -76.254739583045293, 2.660264782280021 ], [ -76.254674820609168, 2.659063371379269 ], [ -76.253952585792831, 2.657804664583751 ], [ -76.253111634656563, 2.656726691659383 ], [ -76.252749641429219, 2.655887049104042 ], [ -76.252027431638339, 2.654628317117335 ], [ -76.251307711812657, 2.653970423195438 ], [ -76.250108538002266, 2.652954048431442 ], [ -76.249029601116959, 2.6521174038565 ], [ -76.247352455172077, 2.651103021895639 ], [ -76.244663860170633, 2.651114331173389 ], [ -76.243526415858454, 2.650578354360874 ], [ -76.242506734554723, 2.649621276194493 ], [ -76.242204250319148, 2.648721268320331 ], [ -76.241484291156738, 2.648003263450153 ], [ -76.240824085133369, 2.647285011503794 ], [ -76.239984636812778, 2.646567505495359 ], [ -76.238847205922482, 2.646031508807762 ], [ -76.236935055098698, 2.645979446226608 ], [ -76.234604919139528, 2.645989214314561 ], [ -76.233289726763999, 2.645814457185575 ], [ -76.232033280002995, 2.645399119448206 ], [ -76.231017572338544, 2.645403371595874 ], [ -76.229822375876168, 2.645348288241579 ], [ -76.228148197539625, 2.645054865333857 ], [ -76.226532016159837, 2.644340572270157 ], [ -76.225215574940322, 2.643865389467743 ], [ -76.224318859234302, 2.643748959109315 ], [ -76.223242394099515, 2.643513111643494 ], [ -76.222522938502451, 2.642915232005771 ], [ -76.22150448398888, 2.642258533426968 ], [ -76.220484797180774, 2.641301388536476 ], [ -76.219823842113044, 2.640402834278899 ], [ -76.219103642604281, 2.639624702798426 ], [ -76.218621943523445, 2.638725394085539 ], [ -76.217422756060543, 2.637708894348824 ], [ -76.216403822411124, 2.636931997017308 ], [ -76.215564872244215, 2.636334605431932 ], [ -76.214785913719012, 2.635797058220353 ], [ -76.213946469825231, 2.635079494933846 ], [ -76.213226761261424, 2.634421513465581 ], [ -76.212984064502251, 2.633521204827484 ], [ -76.212323382374947, 2.632682708925631 ], [ -76.212008761541952, 2.632264446831378 ] ] ] ] } }
]
}
