{
"type": "FeatureCollection",
"name": "silvia_bounding_box",
"crs": { "type": "name", "properties": { "name": "urn:ogc:def:crs:OGC:1.3:CRS84" } },
"xy_coordinate_resolution": 1e-15,
"features": [
{ "type": "Feature", "properties": { "ID_ESPACIA": "19743", "AREA_OFICI": 582.0, "ENTIDAD_TE": "Cabecera Municipal", "NOM_DEPART": "CAUCA", "NOM_MUNICI": "SILVIA", "COD_DEPTO": "19", "width": 0.342005, "height": 0.254763, "area": 0.08713, "perimeter": 1.193537 }, "geometry": { "type": "Polygon", "coordinates": [ [ [ -76.516268058451942, 2.534788865762161 ], [ -76.174262931268913, 2.534788865762161 ], [ -76.174262931268913, 2.789552192096614 ], [ -76.516268058451942, 2.789552192096614 ], [ -76.516268058451942, 2.534788865762161 ] ] ] } }
]
}
